{
    "links": {
        "self": "http://www.neowsapp.com/rest/v1/neo/3799302?api_key=iIulBulltgU6a56xZRHN4H3l9WmuAYTsLGpBGhQ2"
    },
    "id": "3799302",
    "neo_reference_id": "3799302",
    "name": "(2018 CU2)",
    "designation": "2018 CU2",
    "nasa_jpl_url": "http://ssd.jpl.nasa.gov/sbdb.cgi?sstr=3799302",
    "absolute_magnitude_h": 27.9,
    "estimated_diameter": {
        "kilometers": {
            "estimated_diameter_min": 0.0069912523,
            "estimated_diameter_max": 0.0156329154
        },
        "meters": {
            "estimated_diameter_min": 6.9912523225,
            "estimated_diameter_max": 15.6329154409
        },
        "miles": {
            "estimated_diameter_min": 0.0043441614,
            "estimated_diameter_max": 0.0097138403
        },
        "feet": {
            "estimated_diameter_min": 22.9371802696,
            "estimated_diameter_max": 51.289094295
        }
    },
    "is_potentially_hazardous_asteroid": false,
    "close_approach_data": [
        {
            "close_approach_date": "2018-02-15",
            "close_approach_date_full": "2018-Feb-15 04:17",
            "epoch_date_close_approach": 1518668220000,
            "relative_velocity": {
                "kilometers_per_second": "8.8579879874",
                "kilometers_per_hour": "31888.7567546643",
                "miles_per_hour": "19814.4333290301"
            },
            "miss_distance": {
                "astronomical": "0.005736947",
                "lunar": "2.231672383",
                "kilometers": "858235.05150289",
                "miles": "533282.532364282"
            },
            "orbiting_body": "Earth"
        },
        {
            "close_approach_date": "2018-02-15",
            "close_approach_date_full": "2018-Feb-15 12:32",
            "epoch_date_close_approach": 1518697920000,
            "relative_velocity": {
                "kilometers_per_second": "9.4155711799",
                "kilometers_per_hour": "33896.0562475958",
                "miles_per_hour": "21061.6911722909"
            },
            "miss_distance": {
                "astronomical": "0.0066588768",
                "lunar": "2.5903030752",
                "kilometers": "996153.785872416",
                "miles": "618981.2599987008"
            },
            "orbiting_body": "Moon"
        },
        {
            "close_approach_date": "2057-01-15",
            "close_approach_date_full": "2057-Jan-15 06:21",
            "epoch_date_close_approach": 2746765260000,
            "relative_velocity": {
                "kilometers_per_second": "20.9618175972",
                "kilometers_per_hour": "75462.5433500406",
                "miles_per_hour": "46889.4897832516"
            },
            "miss_distance": {
                "astronomical": "0.4019543018",
                "lunar": "156.3602234002",
                "kilometers": "60131507.386617166",
                "miles": "37363986.0989862508"
            },
            "orbiting_body": "Earth"
        },
        {
            "close_approach_date": "2066-06-03",
            "close_approach_date_full": "2066-Jun-03 11:52",
            "epoch_date_close_approach": 3042791520000,
            "relative_velocity": {
                "kilometers_per_second": "20.1742923524",
                "kilometers_per_hour": "72627.45246878",
                "miles_per_hour": "45127.8745631706"
            },
            "miss_distance": {
                "astronomical": "0.3829798156",
                "lunar": "148.9791482684",
                "kilometers": "57292964.666752772",
                "miles": "35600197.4408293736"
            },
            "orbiting_body": "Earth"
        }
    ],
    "orbital_data": {
        "orbit_id": "3",
        "orbit_determination_date": "2018-02-15 06:21:47",
        "first_observation_date": "2018-02-09",
        "last_observation_date": "2018-02-15",
        "data_arc_in_days": 6,
        "observations_used": 34,
        "orbit_uncertainty": "7",
        "minimum_orbit_intersection": ".00383926",
        "jupiter_tisserand_invariant": "4.019",
        "epoch_osculation": "2459000.5",
        "eccentricity": ".4625044460960388",
        "semi_major_axis": "1.737386933994518",
        "inclination": "1.489429086279486",
        "ascending_node_longitude": "335.6179262857775",
        "orbital_period": "836.4562941697967",
        "perihelion_distance": ".9338377524328886",
        "perihelion_argument": "205.6049274637618",
        "aphelion_distance": "2.540936115556149",
        "perihelion_time": "2459028.432724425934",
        "mean_anomaly": "347.9781156966282",
        "mean_motion": ".4303871015249024",
        "equinox": "J2000",
        "orbit_class": {
            "orbit_class_type": "APO",
            "orbit_class_description": "Near-Earth asteroid orbits which cross the Earth’s orbit similar to that of 1862 Apollo",
            "orbit_class_range": "a (semi-major axis) > 1.0 AU; q (perihelion) < 1.017 AU"
        }
    },
    "is_sentry_object": false
}